start=new Date('2022-07-29T00:00:00.000Z').valueOf();
sats=[{"MEAN_ELEMENT_THEORY":"SGP4","TLE_LINE1":"1 51896U 22022AW  22210.00001157 -.00024554  00000-0 -15291-2 0  9990","RCS_SIZE":"LARGE","ARG_OF_PERICENTER":"54.6273","MEAN_ANOMALY":"125.7414","CENTER_NAME":"EARTH","INCLINATION":"53.2174","DECAY_DATE":null,"TIME_SYSTEM":"UTC","COUNTRY_CODE":"US","ECCENTRICITY":"0.00022420","MEAN_MOTION_DOT":"-0.00024554","SEMIMAJOR_AXIS":"6917.825","LAUNCH_DATE":"2022-03-03","OBJECT_TYPE":"PAYLOAD","CLASSIFICATION_TYPE":"U","FILE":"3524019","TLE_LINE2":"2 51896  53.2174 163.4225 0002242  54.6273 125.7414 15.08858217 24064","REF_FRAME":"TEME","NORAD_CAT_ID":"51896","GP_ID":"209042456","ELEMENT_SET_NO":"999","PERIAPSIS":"538.139","MEAN_MOTION":"15.08858217","RA_OF_ASC_NODE":"163.4225","EPHEMERIS_TYPE":"0","PERIOD":"95.436","OBJECT_NAME":"STARLINK-3593","OBJECT_ID":"2022-022AW","APOAPSIS":"541.241","BSTAR":"-0.00152910000000","SITE":"AFETR","EPOCH":"2022-07-29T00:00:00.999648","REV_AT_EPOCH":"2406","MEAN_MOTION_DDOT":"0.0000000000000"},{"MEAN_MOTION":"15.08837327","PERIAPSIS":"538.474","RA_OF_ASC_NODE":"163.4245","PERIOD":"95.438","EPHEMERIS_TYPE":"0","GP_ID":"209044021","NORAD_CAT_ID":"51897","ELEMENT_SET_NO":"999","SITE":"AFETR","EPOCH":"2022-07-29T00:00:00.999648","REV_AT_EPOCH":"2401","MEAN_MOTION_DDOT":"0.0000000000000","APOAPSIS":"541.033","OBJECT_ID":"2022-022AX","OBJECT_NAME":"STARLINK-3598","BSTAR":"-0.00143290000000","MEAN_ANOMALY":"141.7169","ARG_OF_PERICENTER":"63.8895","CENTER_NAME":"EARTH","TLE_LINE1":"1 51897U 22022AX  22210.00001157 -.00023019  00000-0 -14329-2 0  9997","MEAN_ELEMENT_THEORY":"SGP4","RCS_SIZE":"LARGE","MEAN_MOTION_DOT":"-0.00023019","OBJECT_TYPE":"PAYLOAD","LAUNCH_DATE":"2022-03-03","SEMIMAJOR_AXIS":"6917.889","CLASSIFICATION_TYPE":"U","FILE":"3524098","REF_FRAME":"TEME","TLE_LINE2":"2 51897  53.2185 163.4245 0001850  63.8895 141.7169 15.08837327 24014","INCLINATION":"53.2185","COUNTRY_CODE":"US","ECCENTRICITY":"0.00018500","DECAY_DATE":null,"TIME_SYSTEM":"UTC"},{"DECAY_DATE":null,"TIME_SYSTEM":"UTC","COUNTRY_CODE":"US","ECCENTRICITY":"0.00018420","INCLINATION":"53.2181","TLE_LINE2":"2 51898  53.2181 163.4234 0001842  66.2018 159.2723 15.08860935 24060","REF_FRAME":"TEME","FILE":"3524029","CLASSIFICATION_TYPE":"U","SEMIMAJOR_AXIS":"6917.816","LAUNCH_DATE":"2022-03-03","OBJECT_TYPE":"PAYLOAD","MEAN_MOTION_DOT":"-0.00021524","RCS_SIZE":"LARGE","MEAN_ELEMENT_THEORY":"SGP4","TLE_LINE1":"1 51898U 22022AY  22210.00001157 -.00021524  00000-0 -13375-2 0  9997","CENTER_NAME":"EARTH","ARG_OF_PERICENTER":"66.2018","MEAN_ANOMALY":"159.2723","BSTAR":"-0.00133750000000","OBJECT_NAME":"STARLINK-3597","OBJECT_ID":"2022-022AY","APOAPSIS":"540.956","MEAN_MOTION_DDOT":"0.0000000000000","REV_AT_EPOCH":"2406","EPOCH":"2022-07-29T00:00:00.999648","SITE":"AFETR","ELEMENT_SET_NO":"999","NORAD_CAT_ID":"51898","GP_ID":"209042215","EPHEMERIS_TYPE":"0","PERIOD":"95.436","RA_OF_ASC_NODE":"163.4234","PERIAPSIS":"538.407","MEAN_MOTION":"15.08860935"},{"MEAN_MOTION_DOT":"-0.00007285","OBJECT_TYPE":"PAYLOAD","LAUNCH_DATE":"2022-03-09","SEMIMAJOR_AXIS":"6917.844","FILE":"3524113","CLASSIFICATION_TYPE":"U","REF_FRAME":"TEME","TLE_LINE2":"2 51956  53.2149 193.8129 0002051  42.2591 325.4079 15.08851901  1308","INCLINATION":"53.2149","ECCENTRICITY":"0.00020510","COUNTRY_CODE":"US","TIME_SYSTEM":"UTC","DECAY_DATE":null,"MEAN_ANOMALY":"325.4079","ARG_OF_PERICENTER":"42.2591","CENTER_NAME":"EARTH","MEAN_ELEMENT_THEORY":"SGP4","TLE_LINE1":"1 51956U 22025A   22209.91667824 -.00007285  00000-0 -43988-3 0  9994","RCS_SIZE":"LARGE","SITE":"AFETR","EPOCH":"2022-07-28T22:00:00.999936","REV_AT_EPOCH":"130","MEAN_MOTION_DDOT":"0.0000000000000","APOAPSIS":"541.128","OBJECT_ID":"2022-025A","OBJECT_NAME":"STARLINK-3700","BSTAR":"-0.00043988000000","PERIAPSIS":"538.290","MEAN_MOTION":"15.08851901","RA_OF_ASC_NODE":"193.8129","PERIOD":"95.437","EPHEMERIS_TYPE":"0","NORAD_CAT_ID":"51956","GP_ID":"209067616","ELEMENT_SET_NO":"999"},{"EPOCH":"2022-07-29T00:00:00.999648","SITE":"AFETR","MEAN_MOTION_DDOT":"0.0000000000000","REV_AT_EPOCH":"2308","APOAPSIS":"541.132","OBJECT_ID":"2022-025B","OBJECT_NAME":"STARLINK-3694","BSTAR":"-0.00307030000000","RA_OF_ASC_NODE":"193.4311","MEAN_MOTION":"15.08875592","PERIAPSIS":"538.141","PERIOD":"95.435","EPHEMERIS_TYPE":"0","GP_ID":"209044369","NORAD_CAT_ID":"51957","ELEMENT_SET_NO":"999","OBJECT_TYPE":"PAYLOAD","LAUNCH_DATE":"2022-03-09","SEMIMAJOR_AXIS":"6917.772","MEAN_MOTION_DOT":"-0.00048870","REF_FRAME":"TEME","TLE_LINE2":"2 51957  53.2152 193.4311 0002162  56.0197 144.5148 15.08875592 23088","FILE":"3524103","CLASSIFICATION_TYPE":"U","ECCENTRICITY":"0.00021620","COUNTRY_CODE":"US","DECAY_DATE":null,"TIME_SYSTEM":"UTC","INCLINATION":"53.2152","CENTER_NAME":"EARTH","MEAN_ANOMALY":"144.5148","ARG_OF_PERICENTER":"56.0197","RCS_SIZE":"LARGE","MEAN_ELEMENT_THEORY":"SGP4","TLE_LINE1":"1 51957U 22025B   22210.00001157 -.00048870  00000-0 -30703-2 0  9993"},{"RCS_SIZE":"LARGE","MEAN_ELEMENT_THEORY":"SGP4","TLE_LINE1":"1 51958U 22025C   22210.00001157  .00000219  00000-0  31847-4 0  9999","CENTER_NAME":"EARTH","MEAN_ANOMALY":"72.7824","ARG_OF_PERICENTER":"47.7589","COUNTRY_CODE":"US","ECCENTRICITY":"0.00024710","DECAY_DATE":null,"TIME_SYSTEM":"UTC","INCLINATION":"53.2161","LAUNCH_DATE":"2022-03-09","OBJECT_TYPE":"PAYLOAD","SEMIMAJOR_AXIS":"6917.863","MEAN_MOTION_DOT":"0.00000219","REF_FRAME":"TEME","TLE_LINE2":"2 51958  53.2161 193.4431 0002471  47.7589  72.7824 15.08845761 23063","CLASSIFICATION_TYPE":"U","FILE":"3524103","GP_ID":"209044378","NORAD_CAT_ID":"51958","ELEMENT_SET_NO":"999","RA_OF_ASC_NODE":"193.4431","PERIAPSIS":"538.018","MEAN_MOTION":"15.08845761","PERIOD":"95.437","EPHEMERIS_TYPE":"0","APOAPSIS":"541.437","OBJECT_NAME":"STARLINK-3692","OBJECT_ID":"2022-025C","BSTAR":"0.00003184700000","EPOCH":"2022-07-29T00:00:00.999648","SITE":"AFETR","MEAN_MOTION_DDOT":"0.0000000000000","REV_AT_EPOCH":"2306"},{"DECAY_DATE":null,"TIME_SYSTEM":"UTC","ECCENTRICITY":"0.00024350","COUNTRY_CODE":"US","INCLINATION":"53.2140","SEMIMAJOR_AXIS":"6917.936","OBJECT_TYPE":"PAYLOAD","LAUNCH_DATE":"2022-03-09","MEAN_MOTION_DOT":"0.00031828","TLE_LINE2":"2 51959  53.2140 193.8084 0002435  46.3109  41.2723 15.08821799  1309","REF_FRAME":"TEME","CLASSIFICATION_TYPE":"U","FILE":"3524113","RCS_SIZE":"LARGE","MEAN_ELEMENT_THEORY":"SGP4","TLE_LINE1":"1 51959U 22025D   22209.91667824  .00031828  00000-0  20098-2 0  9991","CENTER_NAME":"EARTH","ARG_OF_PERICENTER":"46.3109","MEAN_ANOMALY":"41.2723","OBJECT_NAME":"STARLINK-3704","OBJECT_ID":"2022-025D","APOAPSIS":"541.486","BSTAR":"0.00200980000000","EPOCH":"2022-07-28T22:00:00.999936","SITE":"AFETR","MEAN_MOTION_DDOT":"0.0000000000000","REV_AT_EPOCH":"130","NORAD_CAT_ID":"51959","GP_ID":"209068366","ELEMENT_SET_NO":"999","RA_OF_ASC_NODE":"193.8084","PERIAPSIS":"538.117","MEAN_MOTION":"15.08821799","EPHEMERIS_TYPE":"0","PERIOD":"95.439"},{"BSTAR":"0.00183760000000","OBJECT_NAME":"STARLINK-3691","OBJECT_ID":"2022-025E","APOAPSIS":"541.257","MEAN_MOTION_DDOT":"0.0000000000000","REV_AT_EPOCH":"130","EPOCH":"2022-07-28T22:00:00.999936","SITE":"AFETR","ELEMENT_SET_NO":"999","GP_ID":"209067116","NORAD_CAT_ID":"51960","EPHEMERIS_TYPE":"0","PERIOD":"95.439","RA_OF_ASC_NODE":"193.8013","PERIAPSIS":"538.354","MEAN_MOTION":"15.08820232","DECAY_DATE":null,"TIME_SYSTEM":"UTC","COUNTRY_CODE":"US","ECCENTRICITY":"0.00020980","INCLINATION":"53.2148","TLE_LINE2":"2 51960  53.2148 193.8013 0002098  47.4260  80.1135 15.08820232  1306","REF_FRAME":"TEME","CLASSIFICATION_TYPE":"U","FILE":"3524113","SEMIMAJOR_AXIS":"6917.941","LAUNCH_DATE":"2022-03-09","OBJECT_TYPE":"PAYLOAD","MEAN_MOTION_DOT":"0.00029063","RCS_SIZE":"LARGE","MEAN_ELEMENT_THEORY":"SGP4","TLE_LINE1":"1 51960U 22025E   22209.91667824  .00029063  00000-0  18376-2 0  9997","CENTER_NAME":"EARTH","ARG_OF_PERICENTER":"47.4260","MEAN_ANOMALY":"80.1135"},{"ECCENTRICITY":"0.00025950","COUNTRY_CODE":"US","TIME_SYSTEM":"UTC","DECAY_DATE":null,"INCLINATION":"53.2152","OBJECT_TYPE":"PAYLOAD","LAUNCH_DATE":"2022-03-09","SEMIMAJOR_AXIS":"6917.933","MEAN_MOTION_DOT":"0.00034186","REF_FRAME":"TEME","TLE_LINE2":"2 51961  53.2152 193.8140 0002595  47.2026   0.4081 15.08822742  1306","CLASSIFICATION_TYPE":"U","FILE":"3524113","RCS_SIZE":"LARGE","MEAN_ELEMENT_THEORY":"SGP4","TLE_LINE1":"1 51961U 22025F   22209.91667824  .00034186  00000-0  21566-2 0  9995","CENTER_NAME":"EARTH","MEAN_ANOMALY":"0.4081","ARG_OF_PERICENTER":"47.2026","APOAPSIS":"541.593","OBJECT_NAME":"STARLINK-3689","OBJECT_ID":"2022-025F","BSTAR":"0.00215660000000","EPOCH":"2022-07-28T22:00:00.999936","SITE":"AFETR","MEAN_MOTION_DDOT":"0.0000000000000","REV_AT_EPOCH":"130","NORAD_CAT_ID":"51961","GP_ID":"209067367","ELEMENT_SET_NO":"999","RA_OF_ASC_NODE":"193.8140","MEAN_MOTION":"15.08822742","PERIAPSIS":"538.003","PERIOD":"95.439","EPHEMERIS_TYPE":"0"},{"PERIOD":"95.440","EPHEMERIS_TYPE":"0","PERIAPSIS":"538.336","MEAN_MOTION":"15.08804441","RA_OF_ASC_NODE":"193.4264","ELEMENT_SET_NO":"999","NORAD_CAT_ID":"51962","GP_ID":"209044380","REV_AT_EPOCH":"2308","MEAN_MOTION_DDOT":"0.0000000000000","SITE":"AFETR","EPOCH":"2022-07-29T00:00:00.999648","BSTAR":"0.00306180000000","APOAPSIS":"541.373","OBJECT_ID":"2022-025G","OBJECT_NAME":"STARLINK-3697","MEAN_ANOMALY":"212.7516","ARG_OF_PERICENTER":"42.5606","CENTER_NAME":"EARTH","TLE_LINE1":"1 51962U 22025G   22210.00001157  .00048731  00000-0  30618-2 0  9998","MEAN_ELEMENT_THEORY":"SGP4","RCS_SIZE":"LARGE","FILE":"3524103","CLASSIFICATION_TYPE":"U","REF_FRAME":"TEME","TLE_LINE2":"2 51962  53.2161 193.4264 0002195  42.5606 212.7516 15.08804441 23084","MEAN_MOTION_DOT":"0.00048731","OBJECT_TYPE":"PAYLOAD","LAUNCH_DATE":"2022-03-09","SEMIMAJOR_AXIS":"6917.989","INCLINATION":"53.2161","COUNTRY_CODE":"US","ECCENTRICITY":"0.00021950","DECAY_DATE":null,"TIME_SYSTEM":"UTC"}];
